ONEWEB-0533             
1 55141U 23004B   23312.18102179 -.00000744  00000+0 -21032-2 0  9991
2 55141  87.9112 179.9166 0001766  75.0630 285.0694 13.12448287 43186
ONEWEB-0541             
1 55142U 23004C   23311.77105697  .00000085  00000+0  20393-3 0  9990
2 55142  87.8998 210.2858 0001807  77.2400 282.8930 13.11419243 41129
ONEWEB-0543             
1 55143U 23004D   23312.58334491  .00000015  00000+0  00000+0 0  9999
2 55143  87.6705 165.0726 0001864 254.0908 198.8786 13.57190325 44233
ONEWEB-0544             
1 55144U 23004E   23312.58334491  .00000015  00000+0  00000+0 0  9990
2 55144  87.6760 165.0492 0000396 358.9843 304.9983 13.55987717 44243
ONEWEB-0560             
1 55145U 23004F   23312.58334491  .00000015  00000+0  00000+0 0  9991
2 55145  87.6592 164.9747 0000871  23.2896 248.1108 13.56976036 44258
ONEWEB-0565             
1 55146U 23004G   23312.58334491  .00000015  00000+0  00000+0 0  9992
2 55146  87.6808 165.0675 0000671 148.8737 304.2383 13.56373689 44240
ONEWEB-0567             
1 55147U 23004H   23312.58334491  .00000015  00000+0  00000+0 0  9993
2 55147  87.6798 165.0214 0001682 301.3525 322.0370 13.55879435 44234
ONEWEB-0569             
1 55148U 23004J   23312.11196183  .00002116  00000+0  37905-3 0  9999
2 55148  86.5337 158.4197 0001303   4.0793 356.0431 14.66380182 44483
